{
  "type": "FeatureCollection",
  "features": [
    {
      "type": "Feature",
      "properties": {
        "norad_id": 32393,
        "name": "COSMOS 2434 (721)",
        "group": "gnss",
        "lat": -48.125032241849254,
        "lon": 50.71055623694781,
        "alt_km": 19146.178942487037,
        "timestamp": "2025-12-11T15:53:39.784213+00:00",
        "meta_object_name": "COSMOS 2434 (721)",
        "meta_object_id": "2007-065A",
        "meta_epoch": "2025-12-10T15:35:17.035872",
        "meta_mean_motion": 2.13101152,
        "meta_eccentricity": 0.0004304,
        "meta_inclination": 64.3147,
        "meta_ra_of_asc_node": 198.2738,
        "meta_arg_of_pericenter": 71.148,
        "meta_mean_anomaly": 107.63,
        "meta_ephemeris_type": 0,
        "meta_classification_type": "U",
        "meta_norad_cat_id": 32393,
        "meta_element_set_no": 999,
        "meta_rev_at_epoch": 13975,
        "meta_bstar": 0,
        "meta_mean_motion_dot": 4.8e-07,
        "meta_mean_motion_ddot": 0,
        "tle_line1": "1 32393U 07065A   25344.64950273  .00000048  00000+0  00000+0 0  9992",
        "tle_line2": "2 32393  64.3147 198.2738 0004304  71.1480 107.6300  2.13101152139755"
      },
      "geometry": {
        "type": "Point",
        "coordinates": [
          50.71055623694781,
          -48.125032241849254
        ]
      }
    },
    {
      "type": "Feature",
      "properties": {
        "norad_id": 32395,
        "name": "COSMOS 2436 (723)",
        "group": "gnss",
        "lat": 7.874422165719913,
        "lon": -157.87198678829233,
        "alt_km": 19084.251048795297,
        "timestamp": "2025-12-11T15:53:39.784225+00:00",
        "meta_object_name": "COSMOS 2436 (723)",
        "meta_object_id": "2007-065C",
        "meta_epoch": "2025-12-08T02:01:11.627904",
        "meta_mean_motion": 2.13100022,
        "meta_eccentricity": 0.00177472,
        "meta_inclination": 64.3236,
        "meta_ra_of_asc_node": 198.4308,
        "meta_arg_of_pericenter": 9.2257,
        "meta_mean_anomaly": 134.6131,
        "meta_ephemeris_type": 0,
        "meta_classification_type": "U",
        "meta_norad_cat_id": 32395,
        "meta_element_set_no": 999,
        "meta_rev_at_epoch": 13965,
        "meta_bstar": 0,
        "meta_mean_motion_dot": 5.1e-07,
        "meta_mean_motion_ddot": 0,
        "tle_line1": "1 32395U 07065C   25342.08416236  .00000051  00000+0  00000+0 0  9990",
        "tle_line2": "2 32395  64.3236 198.4308 0017747   9.2257 134.6131  2.13100022139656"
      },
      "geometry": {
        "type": "Point",
        "coordinates": [
          -157.87198678829233,
          7.874422165719913
        ]
      }
    },
    {
      "type": "Feature",
      "properties": {
        "norad_id": 32711,
        "name": "GPS BIIRM-6 (PRN 07)",
        "group": "gnss",
        "lat": -8.330889165490296,
        "lon": 151.40367425120598,
        "alt_km": 20310.435196168226,
        "timestamp": "2025-12-11T15:53:39.784237+00:00",
        "meta_object_name": "GPS BIIRM-6 (PRN 07)",
        "meta_object_id": "2008-012A",
        "meta_epoch": "2025-12-10T16:18:30.026016",
        "meta_mean_motion": 2.00565518,
        "meta_eccentricity": 0.0202357,
        "meta_inclination": 54.4769,
        "meta_ra_of_asc_node": 157.4551,
        "meta_arg_of_pericenter": 244.9238,
        "meta_mean_anomaly": 112.9713,
        "meta_ephemeris_type": 0,
        "meta_classification_type": "U",
        "meta_norad_cat_id": 32711,
        "meta_element_set_no": 999,
        "meta_rev_at_epoch": 12997,
        "meta_bstar": 0,
        "meta_mean_motion_dot": 7.9e-07,
        "meta_mean_motion_ddot": 0,
        "tle_line1": "1 32711U 08012A   25344.67951419  .00000079  00000+0  00000+0 0  9999",
        "tle_line2": "2 32711  54.4769 157.4551 0202357 244.9238 112.9713  2.00565518129974"
      },
      "geometry": {
        "type": "Point",
        "coordinates": [
          151.40367425120598,
          -8.330889165490296
        ]
      }
    },
    {
      "type": "Feature",
      "properties": {
        "norad_id": 35752,
        "name": "GPS BIIRM-8 (PRN 05)",
        "group": "gnss",
        "lat": 5.70147219880357,
        "lon": 38.68846824485658,
        "alt_km": 20145.19781836447,
        "timestamp": "2025-12-11T15:53:39.784248+00:00",
        "meta_object_name": "GPS BIIRM-8 (PRN 05)",
        "meta_object_id": "2009-043A",
        "meta_epoch": "2025-12-10T15:39:24.141600",
        "meta_mean_motion": 2.0056577,
        "meta_eccentricity": 0.0051863,
        "meta_inclination": 56.0896,
        "meta_ra_of_asc_node": 34.8654,
        "meta_arg_of_pericenter": 81.9471,
        "meta_mean_anomaly": 276.3471,
        "meta_ephemeris_type": 0,
        "meta_classification_type": "U",
        "meta_norad_cat_id": 35752,
        "meta_element_set_no": 999,
        "meta_rev_at_epoch": 11957,
        "meta_bstar": 0,
        "meta_mean_motion_dot": -9.3e-07,
        "meta_mean_motion_ddot": 0,
        "tle_line1": "1 35752U 09043A   25344.65236275 -.00000093  00000+0  00000+0 0  9993",
        "tle_line2": "2 35752  56.0896  34.8654 0051863  81.9471 276.3471  2.00565770119576"
      },
      "geometry": {
        "type": "Point",
        "coordinates": [
          38.68846824485658,
          5.70147219880357
        ]
      }
    },
    {
      "type": "Feature",
      "properties": {
        "norad_id": 36111,
        "name": "COSMOS 2456 (730)",
        "group": "gnss",
        "lat": 29.400607266861265,
        "lon": 92.67309132279678,
        "alt_km": 19126.99658987489,
        "timestamp": "2025-12-11T15:53:39.784260+00:00",
        "meta_object_name": "COSMOS 2456 (730)",
        "meta_object_id": "2009-070A",
        "meta_epoch": "2025-12-09T05:47:54.858624",
        "meta_mean_motion": 2.13103359,
        "meta_eccentricity": 0.00028383,
        "meta_inclination": 64.8981,
        "meta_ra_of_asc_node": 77.4578,
        "meta_arg_of_pericenter": 298.5783,
        "meta_mean_anomaly": 37.1692,
        "meta_ephemeris_type": 0,
        "meta_classification_type": "U",
        "meta_norad_cat_id": 36111,
        "meta_element_set_no": 999,
        "meta_rev_at_epoch": 12437,
        "meta_bstar": 0,
        "meta_mean_motion_dot": -1.7e-07,
        "meta_mean_motion_ddot": 0,
        "tle_line1": "1 36111U 09070A   25343.24160716 -.00000017  00000+0  00000+0 0  9999",
        "tle_line2": "2 36111  64.8981  77.4578 0002838 298.5783  37.1692  2.13103359124373"
      },
      "geometry": {
        "type": "Point",
        "coordinates": [
          92.67309132279678,
          29.400607266861265
        ]
      }
    },
    {
      "type": "Feature",
      "properties": {
        "norad_id": 36112,
        "name": "COSMOS 2457 (733)",
        "group": "gnss",
        "lat": 16.24794834734894,
        "lon": -110.61748789604628,
        "alt_km": 19116.15804701509,
        "timestamp": "2025-12-11T15:53:39.784271+00:00",
        "meta_object_name": "COSMOS 2457 (733)",
        "meta_object_id": "2009-070B",
        "meta_epoch": "2025-12-09T23:48:31.817088",
        "meta_mean_motion": 2.13100761,
        "meta_eccentricity": 0.00048188,
        "meta_inclination": 64.8839,
        "meta_ra_of_asc_node": 77.2797,
        "meta_arg_of_pericenter": 156.0783,
        "meta_mean_anomaly": 164.5444,
        "meta_ephemeris_type": 0,
        "meta_classification_type": "U",
        "meta_norad_cat_id": 36112,
        "meta_element_set_no": 999,
        "meta_rev_at_epoch": 12439,
        "meta_bstar": 0,
        "meta_mean_motion_dot": -2.2e-07,
        "meta_mean_motion_ddot": 0,
        "tle_line1": "1 36112U 09070B   25343.99203492 -.00000022  00000+0  00000+0 0  9997",
        "tle_line2": "2 36112  64.8839  77.2797 0004818 156.0783 164.5444  2.13100761124391"
      },
      "geometry": {
        "type": "Point",
        "coordinates": [
          -110.61748789604628,
          16.24794834734894
        ]
      }
    },
    {
      "type": "Feature",
      "properties": {
        "norad_id": 36402,
        "name": "COSMOS 2460 (732)",
        "group": "gnss",
        "lat": 16.8318147462889,
        "lon": 132.8834951085787,
        "alt_km": 19130.416020702418,
        "timestamp": "2025-12-11T15:53:39.784283+00:00",
        "meta_object_name": "COSMOS 2460 (732)",
        "meta_object_id": "2010-007C",
        "meta_epoch": "2025-12-09T19:21:37.643616",
        "meta_mean_motion": 2.13105924,
        "meta_eccentricity": 0.00027883,
        "meta_inclination": 65.5316,
        "meta_ra_of_asc_node": 320.8726,
        "meta_arg_of_pericenter": 272.035,
        "meta_mean_anomaly": 265.828,
        "meta_ephemeris_type": 0,
        "meta_classification_type": "U",
        "meta_norad_cat_id": 36402,
        "meta_element_set_no": 999,
        "meta_rev_at_epoch": 12269,
        "meta_bstar": 0,
        "meta_mean_motion_dot": -4.9e-07,
        "meta_mean_motion_ddot": 0,
        "tle_line1": "1 36402U 10007C   25343.80668569 -.00000049  00000+0  00000+0 0  9990",
        "tle_line2": "2 36402  65.5316 320.8726 0002788 272.0350 265.8280  2.13105924122693"
      },
      "geometry": {
        "type": "Point",
        "coordinates": [
          132.8834951085787,
          16.8318147462889
        ]
      }
    }
  ]
}